{
  "type": "FeatureCollection",
  "features": [
    {
      "type": "Feature",
      "properties": {
        "norad_id": 58701,
        "name": "TIANMU-1 16",
        "group": "weather",
        "lat": 36.60323733110142,
        "lon": 160.94269680382553,
        "alt_km": 490.2764508041273,
        "timestamp": "2025-12-11T15:53:39.185814+00:00",
        "meta_object_name": "TIANMU-1 16",
        "meta_object_id": "2024-004B",
        "meta_epoch": "2025-12-11T06:16:49.360224",
        "meta_mean_motion": 15.24415152,
        "meta_eccentricity": 0.00045787,
        "meta_inclination": 97.4571,
        "meta_ra_of_asc_node": 166.1271,
        "meta_arg_of_pericenter": 303.0986,
        "meta_mean_anomaly": 56.9811,
        "meta_ephemeris_type": 0,
        "meta_classification_type": "U",
        "meta_norad_cat_id": 58701,
        "meta_element_set_no": 999,
        "meta_rev_at_epoch": 10712,
        "meta_bstar": 0.00097204102,
        "meta_mean_motion_dot": 0.00023825,
        "meta_mean_motion_ddot": 0,
        "tle_line1": "1 58701U 24004B   25345.26168241  .00023825  00000+0  97204-3 0  9994",
        "tle_line2": "2 58701  97.4571 166.1271 0004578 303.0986  56.9811 15.24415152107124"
      },
      "geometry": {
        "type": "Point",
        "coordinates": [
          160.94269680382553,
          36.60323733110142
        ]
      }
    },
    {
      "type": "Feature",
      "properties": {
        "norad_id": 58702,
        "name": "TIANMU-1 17",
        "group": "weather",
        "lat": 57.818833214843295,
        "lon": -1.0451880940608735,
        "alt_km": 489.39487098592053,
        "timestamp": "2025-12-11T15:53:39.185824+00:00",
        "meta_object_name": "TIANMU-1 17",
        "meta_object_id": "2024-004C",
        "meta_epoch": "2025-12-11T07:29:13.345728",
        "meta_mean_motion": 15.24462478,
        "meta_eccentricity": 0.00037529,
        "meta_inclination": 97.4606,
        "meta_ra_of_asc_node": 166.5864,
        "meta_arg_of_pericenter": 306.8995,
        "meta_mean_anomaly": 53.1898,
        "meta_ephemeris_type": 0,
        "meta_classification_type": "U",
        "meta_norad_cat_id": 58702,
        "meta_element_set_no": 999,
        "meta_rev_at_epoch": 10712,
        "meta_bstar": 0.00096038827,
        "meta_mean_motion_dot": 0.00023569,
        "meta_mean_motion_ddot": 0,
        "tle_line1": "1 58702U 24004C   25345.31196002  .00023569  00000+0  96039-3 0  9997",
        "tle_line2": "2 58702  97.4606 166.5864 0003752 306.8995  53.1898 15.24462478107127"
      },
      "geometry": {
        "type": "Point",
        "coordinates": [
          -1.0451880940608735,
          57.818833214843295
        ]
      }
    },
    {
      "type": "Feature",
      "properties": {
        "norad_id": 58703,
        "name": "TIANMU-1 18",
        "group": "weather",
        "lat": -32.66028277764107,
        "lon": -17.68927378500971,
        "alt_km": 498.7221957878128,
        "timestamp": "2025-12-11T15:53:39.185834+00:00",
        "meta_object_name": "TIANMU-1 18",
        "meta_object_id": "2024-004D",
        "meta_epoch": "2025-12-11T07:05:10.677408",
        "meta_mean_motion": 15.24449208,
        "meta_eccentricity": 0.00030771,
        "meta_inclination": 97.4622,
        "meta_ra_of_asc_node": 166.7649,
        "meta_arg_of_pericenter": 307.7377,
        "meta_mean_anomaly": 52.3582,
        "meta_ephemeris_type": 0,
        "meta_classification_type": "U",
        "meta_norad_cat_id": 58703,
        "meta_element_set_no": 999,
        "meta_rev_at_epoch": 10712,
        "meta_bstar": 0.00090741696,
        "meta_mean_motion_dot": 0.00022251,
        "meta_mean_motion_ddot": 0,
        "tle_line1": "1 58703U 24004D   25345.29526247  .00022251  00000+0  90742-3 0  9995",
        "tle_line2": "2 58703  97.4622 166.7649 0003077 307.7377  52.3582 15.24449208107120"
      },
      "geometry": {
        "type": "Point",
        "coordinates": [
          -17.68927378500971,
          -32.66028277764107
        ]
      }
    },
    {
      "type": "Feature",
      "properties": {
        "norad_id": 58990,
        "name": "INSAT-3DS",
        "group": "weather",
        "lat": -0.009566490560863634,
        "lon": 41.126610050156586,
        "alt_km": 35789.88262000205,
        "timestamp": "2025-12-11T15:53:39.185845+00:00",
        "meta_object_name": "INSAT-3DS",
        "meta_object_id": "2024-033A",
        "meta_epoch": "2025-12-11T03:37:49.059264",
        "meta_mean_motion": 1.00275093,
        "meta_eccentricity": 0.00015555,
        "meta_inclination": 0.0367,
        "meta_ra_of_asc_node": 130.251,
        "meta_arg_of_pericenter": 135.2929,
        "meta_mean_anomaly": 311.1059,
        "meta_ephemeris_type": 0,
        "meta_classification_type": "U",
        "meta_norad_cat_id": 58990,
        "meta_element_set_no": 999,
        "meta_rev_at_epoch": 4518,
        "meta_bstar": 0,
        "meta_mean_motion_dot": -1.51e-06,
        "meta_mean_motion_ddot": 0,
        "tle_line1": "1 58990U 24033A   25345.15126226 -.00000151  00000+0  00000+0 0  9993",
        "tle_line2": "2 58990   0.0367 130.2510 0001555 135.2929 311.1059  1.00275093 45183"
      },
      "geometry": {
        "type": "Point",
        "coordinates": [
          41.126610050156586,
          -0.009566490560863634
        ]
      }
    },
    {
      "type": "Feature",
      "properties": {
        "norad_id": 59051,
        "name": "METEOR-M2 4",
        "group": "weather",
        "lat": 61.57349189029354,
        "lon": -73.7973338734087,
        "alt_km": 808.7539640478044,
        "timestamp": "2025-12-11T15:53:39.185856+00:00",
        "meta_object_name": "METEOR-M2 4",
        "meta_object_id": "2024-039A",
        "meta_epoch": "2025-12-11T07:09:32.605920",
        "meta_mean_motion": 14.22400957,
        "meta_eccentricity": 0.00071175,
        "meta_inclination": 98.6764,
        "meta_ra_of_asc_node": 302.2298,
        "meta_arg_of_pericenter": 2.6802,
        "meta_mean_anomaly": 357.4413,
        "meta_ephemeris_type": 0,
        "meta_classification_type": "U",
        "meta_norad_cat_id": 59051,
        "meta_element_set_no": 999,
        "meta_rev_at_epoch": 9255,
        "meta_bstar": 5.983896e-05,
        "meta_mean_motion_dot": 9e-07,
        "meta_mean_motion_ddot": 0,
        "tle_line1": "1 59051U 24039A   25345.29829405  .00000090  00000+0  59839-4 0  9992",
        "tle_line2": "2 59051  98.6764 302.2298 0007117   2.6802 357.4413 14.22400957 92554"
      },
      "geometry": {
        "type": "Point",
        "coordinates": [
          -73.7973338734087,
          61.57349189029354
        ]
      }
    },
    {
      "type": "Feature",
      "properties": {
        "norad_id": 60133,
        "name": "GOES 19",
        "group": "weather",
        "lat": -0.00267118919203391,
        "lon": -116.16917519367274,
        "alt_km": 35784.029253056215,
        "timestamp": "2025-12-11T15:53:39.185868+00:00",
        "meta_object_name": "GOES 19",
        "meta_object_id": "2024-119A",
        "meta_epoch": "2025-12-11T04:35:36.023424",
        "meta_mean_motion": 1.00271097,
        "meta_eccentricity": 0.00013305,
        "meta_inclination": 0.0119,
        "meta_ra_of_asc_node": 101.0793,
        "meta_arg_of_pericenter": 208.8281,
        "meta_mean_anomaly": 123.9656,
        "meta_ephemeris_type": 0,
        "meta_classification_type": "U",
        "meta_norad_cat_id": 60133,
        "meta_element_set_no": 999,
        "meta_rev_at_epoch": 507,
        "meta_bstar": 0,
        "meta_mean_motion_dot": -2.42e-06,
        "meta_mean_motion_ddot": 0,
        "tle_line1": "1 60133U 24119A   25345.19138916 -.00000242  00000+0  00000+0 0  9994",
        "tle_line2": "2 60133   0.0119 101.0793 0001330 208.8281 123.9656  1.00271097  5074"
      },
      "geometry": {
        "type": "Point",
        "coordinates": [
          -116.16917519367274,
          -0.00267118919203391
        ]
      }
    },
    {
      "type": "Feature",
      "properties": {
        "norad_id": 65815,
        "name": "FENGYUN 3H",
        "group": "weather",
        "lat": -47.969140952331855,
        "lon": -64.9916862062798,
        "alt_km": 832.7876507396586,
        "timestamp": "2025-12-11T15:53:39.185889+00:00",
        "meta_object_name": "FENGYUN 3H",
        "meta_object_id": "2025-219A",
        "meta_epoch": "2025-12-11T05:58:33.439296",
        "meta_mean_motion": 14.19904178,
        "meta_eccentricity": 6.08e-05,
        "meta_inclination": 98.6583,
        "meta_ra_of_asc_node": 284.8718,
        "meta_arg_of_pericenter": 89.5494,
        "meta_mean_anomaly": 270.5752,
        "meta_ephemeris_type": 0,
        "meta_classification_type": "U",
        "meta_norad_cat_id": 65815,
        "meta_element_set_no": 999,
        "meta_rev_at_epoch": 1071,
        "meta_bstar": 0.00011267699,
        "meta_mean_motion_dot": 1.96e-06,
        "meta_mean_motion_ddot": 0,
        "tle_line1": "1 65815U 25219A   25345.24899814  .00000196  00000+0  11268-3 0  9994",
        "tle_line2": "2 65815  98.6583 284.8718 0000608  89.5494 270.5752 14.19904178 10718"
      },
      "geometry": {
        "type": "Point",
        "coordinates": [
          -64.9916862062798,
          -47.969140952331855
        ]
      }
    }
  ]
}